ANIK F3                 
1 31102U 07009A   17001.42131580  .00000006  00000-0  00000+0 0  9991
2 31102   0.0153  42.4972 0001815 254.4259 197.2891  1.00271770 35709
ASTRA 1L                
1 31306U 07016A   17001.25548194  .00000126  00000-0  00000+0 0  9992
2 31306   0.0596 316.4270 0004769 330.2616 285.5688  1.00269779 35400
GALAXY 17 (G-17)        
1 31307U 07016B   17001.51907021 -.00000168  00000-0  00000+0 0  9997
2 31307   0.0212   6.4651 0003018 279.0444 271.7177  1.00271629 35441
ZHONGXING-6B            
1 31800U 07031A   16366.93884748 -.00000354  00000-0  00000+0 0  9998
2 31800   0.0171  55.4896 0003357 207.9659 290.8507  1.00270806 34839
DIRECTV 10              
1 31862U 07032A   17001.00558555 -.00000096  00000-0  00000+0 0  9999
2 31862   0.0452 214.1822 0001224 184.6331 321.1948  1.00273853 34776
SPACEWAY 3              
1 32018U 07036A   16366.33072130 -.00000144  00000-0  00000+0 0  9990
2 32018   0.0306 163.8096 0000228 247.6301  72.8598  1.00272425 34484
BSAT-3A                 
1 32019U 07036B   17001.41349952 -.00000343  00000-0  00000+0 0  9997
2 32019   0.0758 242.6029 0004478   4.6751 112.6755  1.00269270 34436
INSAT-4CR               
1 32050U 07037A   17001.11872924 -.00000070  00000-0  00000+0 0  9997
2 32050   0.0371 270.0394 0009670   6.1945 301.4637  1.00272256 34214
OPTUS D2                
1 32252U 07044A   16366.27845534 -.00000176  00000-0  00000+0 0  9993
2 32252   0.0252 287.1792 0003797 355.1133  70.0851  1.00271517 33795
INTELSAT 11 (IS-11)     
1 32253U 07044B   16366.12490432 -.00000261  00000-0  00000+0 0  9996
2 32253   0.0474 234.5339 0002570  54.2477 173.1641  1.00272204 33887
STAR ONE C1             
1 32293U 07056A   16365.90336586 -.00000269  00000-0  00000+0 0  9995
2 32293   0.0277  90.2052 0002870 203.1575  66.6089  1.00271321 33463
SKYNET 5B               
1 32294U 07056B   17001.12524500  .00000149  00000-0  00000+0 0  9999
2 32294   0.0659 359.1616 0004043 285.9229 246.0685  1.00268542 33578
ASTRA 4A (SIRIUS 4)     
1 32299U 07057A   17001.18481777  .00000039  00000-0  00000+0 0  9997
2 32299   0.0163  29.0320 0002708 254.2422 249.0817  1.00272631 33325
HORIZONS-2              
1 32388U 07063B   16366.74705123 -.00000175  00000-0  00000+0 0  9994
2 32388   0.0104   5.5529 0002720 286.5206 162.3010  1.00271982 33242
THURAYA-3               
1 32404U 08001A   16365.97649491 -.00000291  00000-0  00000+0 0  9994
2 32404   4.1305 352.0217 0004668 282.7796 275.0847  1.00272107 32887
EXPRESS-AM33            
1 32478U 08003A   16366.04383683 -.00000273  00000-0  00000+0 0  9994
2 32478   0.0246 214.0410 0000865 196.1688 161.9678  1.00271347 32972
THOR 5                  
1 32487U 08006A   17001.32313060 -.00000002  00000-0  00000+0 0  9997
2 32487   0.0489 250.4558 0002493  39.8309 286.4448  1.00272170 32546
KIZUNA (WINDS)          
1 32500U 08007A   16366.91027421 -.00000252  00000-0  00000+0 0  9992
2 32500   0.4824  91.3324 0002348 199.6595 280.4488  1.00271908 32392
AMC-14                  
1 32708U 08011A   16366.86698684  .00000097  00000-0  00000+0 0  9992
2 32708  18.8108  65.4017 0032023 353.7193  11.6052  1.00272978 33469
DIRECTV 11              
1 32729U 08013A   17001.09164128 -.00000119  00000-0  00000+0 0  9996
2 32729   0.0133 135.6270 0000254 301.0360 318.0852  1.00271486 32304
ICO G1                  
1 32763U 08016A   17001.51996229 -.00000162  00000-0  00000+0 0  9997
2 32763   3.9060 352.9890 0003494 293.3865 269.3161  1.00271157 31830
VINASAT-1               
1 32767U 08018A   16366.35509434 -.00000321  00000-0  00000+0 0  9993
2 32767   0.0101  21.0485 0001498 267.0725  71.8644  1.00272295 31967
STAR ONE C2             
1 32768U 08018B   16366.91447000 -.00000258  00000-0  00000+0 0  9995
2 32768   0.0551 133.1774 0001458 166.0745  60.7346  1.00271815 31917
TIANLIAN 1-01           
1 32779U 08019A   16366.04962525 -.00000132  00000-0  10000-3 0  9992
2 32779   2.4608  76.8898 0037997 223.5351 257.3378  1.00276506 31828
AMOS-3                  
1 32794U 08022A   17001.07114863 -.00000027  00000-0  00000+0 0  9995
2 32794   0.0440 221.4202 0000845  83.4845 177.5900  1.00272341 31819
GALAXY 18 (G-18)        
1 32951U 08024A   16366.06390231  .00000033  00000-0  00000+0 0  9995
2 32951   0.0177   9.5653 0002985 271.9921  78.4090  1.00270031 31444
CHINASAT 9 (ZX 9)       
1 33051U 08028A   16366.86485178 -.00000239  00000-0  00000+0 0  9993
2 33051   0.0132  24.8381 0004218 264.2983 215.0729  1.00269050 31378
SKYNET 5C               
1 33055U 08030A   16366.93313369 -.00000133  00000-0  00000+0 0  9993
2 33055   0.0602  15.7210 0003602 258.7351 144.4231  1.00271709 31262
TURKSAT 3A              
1 33056U 08030B   17001.11443111  .00000153  00000-0  00000+0 0  9991
2 33056   0.0608 146.0477 0003261 120.9730 277.1136  1.00272393 31442
INTELSAT 25 (IS-25)     
1 33153U 08034A   16366.80783256 -.00000217  00000-0  00000+0 0  9991
2 33153   0.0162 332.3971 0002336 281.6254 105.9532  1.00270636 31000
BADR-6                  
1 33154U 08034B   17001.12524500  .00000151  00000-0  00000+0 0  9995
2 33154   0.0641  43.0067 0003049 283.8891 205.1428  1.00273572 31120
ECHOSTAR 11             
1 33207U 08035A   16366.02800431 -.00000049  00000-0  00000+0 0  9994
2 33207   0.0174  22.6696 0003158 274.6552  62.6449  1.00271990 31013
SUPERBIRD-C2            
1 33274U 08038A   17001.35955080 -.00000245  00000-0  00000+0 0  9993
2 33274   0.0237  33.5274 0001091 252.9893  88.0794  1.00268132 30750
AMC-21                  
1 33275U 08038B   17001.42131580  .00000043  00000-0  00000+0 0  9998
2 33275   0.0261 326.8229 0002471 325.6265 195.5743  1.00272286 30832
INMARSAT 4-F3           
1 33278U 08039A   16366.33102237 -.00000127  00000-0  00000+0 0  9996
2 33278   3.0208 359.7710 0003146 284.9349 196.6546  1.00272103 30627
NIMIQ 4                 
1 33373U 08044A   16366.26828447 -.00000213  00000-0  00000+0 0  9994
2 33373   0.0141 106.6618 0002521 190.3757 177.6404  1.00271120 30193
GALAXY 19 (G-19)        
1 33376U 08045A   16365.99199883 -.00000131  00000-0  00000+0 0  9991
2 33376   0.0143  51.7147 0002892 231.7039  76.5510  1.00270716 30194
VENESAT-1               
1 33414U 08055A   17001.28375336 -.00000231  00000-0  00000+0 0  9995
2 33414   0.0372 118.9434 0003045 156.3216 210.0008  1.00272526 29912
ASTRA 1M                
1 33436U 08057A   17001.12023080  .00000127  00000-0  00000+0 0  9993
2 33436   0.0408  85.1533 0001359 127.7772 310.4758  1.00273070 29840
CIEL-2                  
1 33453U 08063A   17001.15546209  .00000065  00000-0  00000+0 0  9996
2 33453   0.0102  14.2328 0002834 267.2482 106.6219  1.00272301 29520
EUTELSAT HOT BIRD 13C   
1 33459U 08065A   16365.68735441  .00000095  00000-0  00000-0 0  9996
2 33459   0.0688  61.6482 0001834 212.4353  85.8976  1.00271887 12731
EUTELSAT 48D            
1 33460U 08065B   16366.78034863  .00000131  00000-0  00000+0 0  9990
2 33460   0.0468  24.2069 0002852 251.8026 153.6364  1.00273803 29474
FENGYUN 2E              
1 33463U 08066A   16366.03424758 -.00000196  00000-0  00000+0 0  9990
2 33463   1.8663  65.3512 0004527 216.8123 276.9002  1.00274246 29449
EXPRESS-AM44            
1 33595U 09007A   16366.43681861 -.00000081  00000-0  00000+0 0  9999
2 33595   0.0221 203.1405 0000232  99.7642 303.6311  1.00271916 28915
NSS-9                   
1 33749U 09008A   17001.29447771  .00000078  00000-0  00000+0 0  9997
2 33749   0.0167  10.8101 0001920 267.3552 112.0369  1.00272648 28939
EUTELSAT 33E            
1 33750U 09008B   16366.63768253  .00000163  00000-0  00000+0 0  9996
2 33750   0.0340 327.1873 0005011 284.2215 111.7279  1.00270129 28964
TELSTAR 11N             
1 34111U 09009A   16366.17654769 -.00000243  00000-0  00000+0 0  9994
2 34111   0.0184  21.8988 0002508 245.3924 218.7400  1.00271558 28770
EUTELSAT 10A            
1 34710U 09016A   17001.25271882  .00000075  00000-0  00000+0 0  9996
2 34710   0.0617   6.3066 0005377 279.0418 276.7027  1.00270655 28338
SES-7 (PROTOSTAR 2)     
1 34941U 09027A   16366.73692126 -.00000338  00000-0  00000+0 0  9991
2 34941   0.0419  69.5934 0002555 214.4256 190.1111  1.00271698 27988
MEASAT-3A               
1 35362U 09032A   16365.46982259 -.00000233  00000-0  00000+0 0  9997
2 35362   0.0238 258.4166 0002567 354.2863 107.2690  1.00269327 27595
GOES 14                 
1 35491U 09033A   16366.01236669 -.00000085  00000-0  00000+0 0  9995
2 35491   0.0979 267.3222 0008186 328.2934 124.3088  1.00272981 27518
SIRIUS FM-5             
1 35493U 09034A   16366.26000065 -.00000193  00000-0  00000+0 0  9994
2 35493   0.0038  20.9608 0000273  91.1482 355.4562  1.00272070 27333
TERRESTAR-1             
1 35496U 09035A   16365.97935892 -.00000045  00000-0  00000+0 0  9996
2 35496   3.0296 341.1763 0003307 304.2725  55.9472  1.00272140 27514
ASIASAT 5               
1 35696U 09042A   16366.74468404 -.00000300  00000-0  00000+0 0  9996
2 35696   0.0264 298.8639 0001133 312.2804 218.0301  1.00273942 27031
JCSAT-RA (JCSAT-12)     
1 35755U 09044A   16366.36622464 -.00000337  00000-0  00000+0 0  9990
2 35755   0.0453  42.5764 0000832 183.2680 134.1505  1.00272642 27022
OPTUS D3                
1 35756U 09044B   16366.50347606 -.00000140  00000-0  00000+0 0  9991
2 35756   0.0251  15.4273 0003453 280.4605 141.7303  1.00271283 26997
PALAPA D                
1 35812U 09046A   17001.55821098 -.00000351  00000-0  00000+0 0  9994
2 35812   0.0303  65.9078 0001740 240.3195 109.0860  1.00270732 27047
NIMIQ 5                 
1 35873U 09050A   17001.28111176 -.00000250  00000-0  00000+0 0  9993
2 35873   0.0186 304.1882 0002705 321.3141 224.1265  1.00272192 26721
AMAZONAS 2              
1 35942U 09054A   17001.38516375 -.00000276  00000-0  00000+0 0  9993
2 35942   0.0402 164.5536 0001795  43.2831 331.0741  1.00273421 26551
